XRISM                   
1 57800U 23137A   26091.81759079  .00006352  00000+0  35740-3 0  9997
2 57800  31.0013 134.0398 0007913 271.7893  88.1839 15.11774375141290
ACS3                    
1 59588U 24077B   26091.53053109  .00038700  00000+0  30211-1 0  9994
2 59588  97.1960  27.5089 0073123  24.9260 335.5407 13.90725327 97371
HTV-X1                  
1 66174U 25241A   26091.53963492  .00001271  00000+0  51596-4 0  9997
2 66174  51.6374 322.9356 0007227 261.2485  98.7678 15.32489575 24446
SZ-21 MODULE            
1 66515U 25246C   26091.98107818  .00045644  00000+0  36265-3 0  9999
2 66515  41.4743  59.7865 0002639 221.3741 138.6901 15.70416222 21739
